[{"OBJECT_NAME":"STARLINK-30857","OBJECT_ID":"2023-200G","EPOCH":"2026-03-09T22:00:01.999584","MEAN_MOTION":15.26753139,"ECCENTRICITY":0.00014514,"INCLINATION":42.9994,"RA_OF_ASC_NODE":167.4601,"ARG_OF_PERICENTER":261.2918,"MEAN_ANOMALY":215.2192,"EPHEMERIS_TYPE":0,"CLASSIFICATION_TYPE":"U","NORAD_CAT_ID":58595,"ELEMENT_SET_NO":999,"REV_AT_EPOCH":578,"BSTAR":-0.000411341,"MEAN_MOTION_DOT":-0.00011281,"MEAN_MOTION_DDOT":0},{"OBJECT_NAME":"CZ-6A DEB","OBJECT_ID":"2024-140AAN","EPOCH":"2026-03-09T15:08:07.195776","MEAN_MOTION":15.20547394,"ECCENTRICITY":0.0064261,"INCLINATION":89.3669,"RA_OF_ASC_NODE":306.3092,"ARG_OF_PERICENTER":93.6352,"MEAN_ANOMALY":267.2246,"EPHEMERIS_TYPE":0,"CLASSIFICATION_TYPE":"U","NORAD_CAT_ID":61480,"ELEMENT_SET_NO":999,"REV_AT_EPOCH":8198,"BSTAR":0.0033609,"MEAN_MOTION_DOT":0.00078405,"MEAN_MOTION_DDOT":0}]
